NORAD_CAT_ID,OBJECT_NAME,OBJECT_TYPE,EPOCH,MEAN_MOTION,ECCENTRICITY,INCLINATION,RA_OF_ASC_NODE,ARG_OF_PERICENTER,MEAN_ANOMALY,BSTAR,MEAN_MOTION_DOT,MEAN_MOTION_DDOT,TLE_LINE0,TLE_LINE1,TLE_LINE2,SEMIMAJOR_AXIS,PERIOD,APOGEE,PERIGEE,DECAYED
55935.0,STARLINK-5920,PAYLOAD,2023-04-21 04:39:35,15.69945218,0.0002648,70.002,84.2815,280.404,79.6858,5.292e-05,6.16e-05,0.0,0 STARLINK-5920,1 55935U 23037X   23111.19415760  .00006160  00000-0  52920-4 0  9998,2 55935  70.0020  84.2815 0002648 280.4040  79.6858 15.69945218  5934,6737.191,91.723,360.84,357.272,0.0
55935.0,STARLINK-5920,PAYLOAD,2023-04-21 06:11:15,15.70080184,0.000293,70.0018,84.1018,266.7003,93.3858,0.00039617,0.00048003,0.0,0 STARLINK-5920,1 55935U 23037X   23111.25782298  .00048003  00000-0  39617-3 0  9997,2 55935  70.0018  84.1018 0002930 266.7003  93.3858 15.70080184  5943,6736.805,91.715,360.644,356.696,0.0
55935.0,STARLINK-5920,PAYLOAD,2023-04-21 21:28:36,15.70201238,0.0003135,70.0005,82.3098,275.5859,84.4979,0.00049422,0.00060329,0.0,0 STARLINK-5920,1 55935U 23037X   23111.89486511  .00060329  00000-0  49422-3 0  9996,2 55935  70.0005  82.3098 0003135 275.5859  84.4979 15.70201238  6044,6736.458,91.708,360.435,356.212,0.0
55935.0,STARLINK-5920,PAYLOAD,2023-04-22 08:11:08,15.69935183,0.0003315,70.0027,81.0574,278.291,81.7909,2.5167e-05,2.816e-05,0.0,0 STARLINK-5920,1 55935U 23037X   23112.34106491  .00002816  00000-0  25167-4 0  9991,2 55935  70.0027  81.0574 0003315 278.2910  81.7909 15.69935183  6113,6737.219,91.724,361.318,356.851,0.0
55935.0,STARLINK-5920,PAYLOAD,2023-04-23 04:03:55,15.69922836,0.0002542,70.0028,78.728,267.2461,92.8443,1.1148e-06,-7.8e-07,0.0,0 STARLINK-5920,1 55935U 23037X   23113.16938897 -.00000078  00000-0  11148-5 0  9999,2 55935  70.0028  78.7280 0002542 267.2461  92.8443 15.69922836  5904,6737.255,91.724,360.832,357.407,0.0
55935.0,STARLINK-5920,PAYLOAD,2023-04-23 07:07:25,15.69930469,0.0003193,70.0008,78.3684,269.7777,90.3053,1.8922e-05,2.064e-05,0.0,0 STARLINK-5920,1 55935U 23037X   23113.29682052  .00002064  00000-0  18922-4 0  9994,2 55935  70.0008  78.3684 0003193 269.7777  90.3053 15.69930469  6267,6737.233,91.724,361.249,356.947,0.0
55935.0,STARLINK-5920,PAYLOAD,2023-04-23 20:53:11,15.6993247,0.000303,70.0008,76.7556,264.6584,95.4266,1.7938e-05,1.945e-05,0.0,0 STARLINK-5920,1 55935U 23037X   23113.87026995  .00001945  00000-0  17938-4 0  9999,2 55935  70.0008  76.7556 0003030 264.6584  95.4266 15.69932470  6016,6737.227,91.724,361.134,357.051,0.0
55935.0,STARLINK-5920,PAYLOAD,2023-04-25 00:24:43,15.69879127,0.0002798,70.0016,73.5318,235.6517,124.4414,-0.00015504,-0.00018776,0.0,0 STARLINK-5920,1 55935U 23037X   23115.01717512 -.00018776  00000-0 -15504-3 0  9997,2 55935  70.0016  73.5318 0002798 235.6517 124.4414 15.69879127  6534,6737.38,91.727,361.13,357.36,0.0
55935.0,STARLINK-5920,PAYLOAD,2023-04-25 06:31:45,15.69871389,0.0003,70.0024,72.8169,246.5049,113.5831,-0.00015556,-0.00018833,0.0,0 STARLINK-5920,1 55935U 23037X   23115.27205068 -.00018833  00000-0 -15556-3 0  9994,2 55935  70.0024  72.8169 0003000 246.5049 113.5831 15.69871389  6238,6737.402,91.727,361.288,357.246,0.0
55935.0,STARLINK-5920,PAYLOAD,2023-04-26 06:59:47,15.69923032,0.000272,70.0039,69.9512,248.0966,111.9941,3.7496e-05,4.298e-05,0.0,0 STARLINK-5920,1 55935U 23037X   23116.29151659  .00004298  00000-0  37496-4 0  9999,2 55935  70.0039  69.9512 0002720 248.0966 111.9941 15.69923032  6390,6737.254,91.724,360.952,357.287,0.0
55935.0,STARLINK-5920,PAYLOAD,2023-04-26 14:38:27,15.70052512,0.0002646,70.0025,69.0528,294.1139,65.978,0.00034545,0.00041749,0.0,0 STARLINK-5920,1 55935U 23037X   23116.61004178  .00041749  00000-0  34545-3 0  9991,2 55935  70.0025  69.0528 0002646 294.1139  65.9780 15.70052512  6447,6736.884,91.717,360.531,356.966,0.0
55935.0,STARLINK-5920,PAYLOAD,2023-04-27 02:52:32,15.6998128,0.0001407,70.0036,67.6234,228.433,131.6745,0.00022242,0.00026674,0.0,0 STARLINK-5920,1 55935U 23037X   23117.11981506  .00026674  00000-0  22242-3 0  9997,2 55935  70.0036  67.6234 0001407 228.4330 131.6745 15.69981280  6863,6737.088,91.721,359.9,358.005,0.0
55935.0,STARLINK-5920,PAYLOAD,2023-04-27 05:56:00,15.70034931,0.0003223,70.0022,67.2653,244.1149,115.9715,0.0003767,0.00045536,0.0,0 STARLINK-5920,1 55935U 23037X   23117.24722787  .00045536  00000-0  37670-3 0  9994,2 55935  70.0022  67.2653 0003223 244.1149 115.9715 15.70034931  6541,6736.934,91.718,360.97,356.628,0.0
55935.0,STARLINK-5920,PAYLOAD,2023-04-28 00:16:55,15.7008513,0.000356,70.0039,65.1146,274.7725,85.3065,0.00026002,0.0003138,0.0,0 STARLINK-5920,1 55935U 23037X   23118.01175324  .00031380  00000-0  26002-3 0  9998,2 55935  70.0039  65.1146 0003560 274.7725  85.3065 15.70085130  7003,6736.79,91.715,361.054,356.257,0.0
55935.0,STARLINK-5920,PAYLOAD,2023-04-28 15:34:38,15.6984594,0.0003054,70.0023,63.3259,273.4663,86.6183,-4.9518e-05,-6.142e-05,0.0,0 STARLINK-5920,1 55935U 23037X   23118.64906217 -.00006142  00000-0 -49518-4 0  9998,2 55935  70.0023  63.3259 0003054 273.4663  86.6183 15.69845940  7103,6737.475,91.729,361.397,357.282,0.0
55935.0,STARLINK-5920,PAYLOAD,2023-04-29 05:20:21,15.6993306,0.0003164,70.0012,61.7088,266.1463,93.9371,3.4217e-05,3.905e-05,0.0,0 STARLINK-5920,1 55935U 23037X   23119.22247414  .00003905  00000-0  34217-4 0  9992,2 55935  70.0012  61.7088 0003164 266.1463  93.9371 15.69933060  7192,6737.226,91.724,361.222,356.959,0.0
55935.0,STARLINK-5920,PAYLOAD,2023-04-29 19:06:08,15.69925718,0.0003076,70.002,60.0991,265.4521,94.6324,2.1118e-05,2.327e-05,0.0,0 STARLINK-5920,1 55935U 23037X   23119.79592777  .00002327  00000-0  21118-4 0  9992,2 55935  70.0020  60.0991 0003076 265.4521  94.6324 15.69925718  7282,6737.247,91.724,361.184,357.039,0.0
55935.0,STARLINK-5920,PAYLOAD,2023-04-30 07:20:09,15.69924547,0.00033,70.0009,58.6631,267.7337,92.348,1.1583e-05,1.18e-05,0.0,0 STARLINK-5920,1 55935U 23037X   23120.30566176  .00001180  00000-0  11583-4 0  9996,2 55935  70.0009  58.6631 0003300 267.7337  92.3480 15.69924547  7022,6737.25,91.724,361.338,356.892,0.0
55935.0,STARLINK-5920,PAYLOAD,2023-04-30 21:05:55,15.69916743,0.0003474,70.0008,57.0518,267.0816,92.9982,-6.7607e-06,-1.025e-05,0.0,0 STARLINK-5920,1 55935U 23037X   23120.87911895 -.00001025  00000-0 -67607-5 0  9999,2 55935  70.0008  57.0518 0003474 267.0816  92.9982 15.69916743  7454,6737.272,91.725,361.478,356.797,0.0
55935.0,STARLINK-5920,PAYLOAD,2023-05-01 04:44:40,15.69930677,0.0003539,70.0013,56.1566,261.2795,98.8,2.7312e-05,3.073e-05,0.0,0 STARLINK-5920,1 55935U 23037X   23121.19769655  .00003073  00000-0  27312-4 0  9991,2 55935  70.0013  56.1566 0003539 261.2795  98.8000 15.69930677  7501,6737.232,91.724,361.482,356.713,0.0
55935.0,STARLINK-5920,PAYLOAD,2023-05-01 06:16:26,15.69932498,0.0003553,70.0011,55.9765,260.3325,99.747,3.4069e-05,3.887e-05,0.0,0 STARLINK-5920,1 55935U 23037X   23121.26141224  .00003887  00000-0  34069-4 0  9995,2 55935  70.0011  55.9765 0003553 260.3325  99.7470 15.69932498  7179,6737.227,91.724,361.486,356.698,0.0
55935.0,STARLINK-5920,PAYLOAD,2023-05-01 21:33:57,15.69932353,0.0003098,70.0018,54.1827,263.4937,96.5906,4.0674e-05,4.682e-05,0.0,0 STARLINK-5920,1 55935U 23037X   23121.89857982  .00004682  00000-0  40674-4 0  9992,2 55935  70.0018  54.1827 0003098 263.4937  96.5906 15.69932353  7273,6737.228,91.724,361.18,357.005,0.0
55935.0,STARLINK-5920,PAYLOAD,2023-05-02 05:12:43,15.69905958,0.0002894,70.0025,53.2882,273.3889,86.6975,-3.5724e-05,-4.502e-05,0.0,0 STARLINK-5920,1 55935U 23037X   23122.21717129 -.00004502  00000-0 -35724-4 0  9990,2 55935  70.0025  53.2882 0002894 273.3889  86.6975 15.69905958  7661,6737.303,91.725,361.118,357.218,0.0
55935.0,STARLINK-5920,PAYLOAD,2023-05-02 12:51:29,15.69912849,0.0003302,70.0013,52.3929,264.672,95.4099,-1.3706e-05,-1.859e-05,0.0,0 STARLINK-5920,1 55935U 23037X   23122.53575252 -.00001859  00000-0 -13706-4 0  9992,2 55935  70.0013  52.3929 0003302 264.6720  95.4099 15.69912849  7710,6737.283,91.725,361.373,356.924,0.0
55935.0,STARLINK-5920,PAYLOAD,2023-05-02 20:30:14,15.69914638,0.0003495,70.0018,51.4978,265.0861,94.9936,-1.123e-05,-1.562e-05,0.0,0 STARLINK-5920,1 55935U 23037X   23122.85433631 -.00001562  00000-0 -11230-4 0  9992,2 55935  70.0018  51.4978 0003495 265.0861  94.9936 15.69914638  7423,6737.278,91.725,361.498,356.789,0.0
55935.0,STARLINK-5920,PAYLOAD,2023-05-03 04:08:59,15.69919818,0.0003492,70.0024,50.6012,267.7063,92.3733,-2.6053e-06,-5.26e-06,0.0,0 STARLINK-5920,1 55935U 23037X   23123.17291633 -.00000526  00000-0 -26053-5 0  9991,2 55935  70.0024  50.6012 0003492 267.7063  92.3733 15.69919818  7815,6737.263,91.724,361.481,356.776,0.0
55935.0,STARLINK-5920,PAYLOAD,2023-05-03 13:19:30,15.69933901,0.0003617,70.0021,49.5268,263.182,96.8964,6.2267e-05,7.284e-05,0.0,0 STARLINK-5920,1 55935U 23037X   23123.55521350  .00007284  00000-0  62267-4 0  9997,2 55935  70.0021  49.5268 0003617 263.1820  96.8964 15.69933901  7535,6737.223,91.724,361.525,356.651,0.0
55935.0,STARLINK-5920,PAYLOAD,2023-05-03 20:58:16,15.6992147,0.0003686,70.0021,48.6319,264.118,95.9596,2.382e-05,2.652e-05,0.0,0 STARLINK-5920,1 55935U 23037X   23123.87380110  .00002652  00000-0  23820-4 0  9995,2 55935  70.0021  48.6319 0003686 264.1180  95.9596 15.69921470  7582,6737.259,91.724,361.607,356.64,0.0
55935.0,STARLINK-5920,PAYLOAD,2023-05-04 04:37:01,15.69931855,0.0003654,70.0023,47.7363,263.3951,96.6829,0.00012238,0.00014533,0.0,0 STARLINK-5920,1 55935U 23037X   23124.19238294  .00014533  00000-0  12238-3 0  9997,2 55935  70.0023  47.7363 0003654 263.3951  96.6829 15.69931855  7973,6737.229,91.724,361.556,356.632,0.0
55935.0,STARLINK-5920,PAYLOAD,2023-05-04 12:15:47,15.69930997,0.0003649,70.0025,46.8405,263.6974,96.3806,0.00024701,0.00029603,0.0,0 STARLINK-5920,1 55935U 23037X   23124.51096586  .00029603  00000-0  24701-3 0  9991,2 55935  70.0025  46.8405 0003649 263.6974  96.3806 15.69930997  7680,6737.231,91.724,361.555,356.638,0.0
